{
  "type": "FeatureCollection",
  "features": [
    {
      "type": "Feature",
      "properties": {
        "norad_id": 29876,
        "name": "FENGYUN 1C DEB",
        "group": "fengyun-1c-debris",
        "lat": 16.078618242809927,
        "lon": 27.788339650073894,
        "alt_km": 783.7930748892486,
        "timestamp": "2025-12-05T04:52:15.564767+00:00",
        "meta_object_name": "FENGYUN 1C DEB",
        "meta_object_id": "1999-025FW",
        "meta_epoch": "2025-12-04T02:00:22.961376",
        "meta_mean_motion": 14.20289186,
        "meta_eccentricity": 0.00619672,
        "meta_inclination": 98.3345,
        "meta_ra_of_asc_node": 29.155,
        "meta_arg_of_pericenter": 42.4088,
        "meta_mean_anomaly": 14.1611,
        "meta_ephemeris_type": 0,
        "meta_classification_type": "U",
        "meta_norad_cat_id": 29876,
        "meta_element_set_no": 999,
        "meta_rev_at_epoch": 97794,
        "meta_bstar": 0.00025684633,
        "meta_mean_motion_dot": 5.2e-06,
        "meta_mean_motion_ddot": 0,
        "tle_line1": "1 29876U 99025FW  25338.08359909  .00000520  00000+0  25685-3 0  9996",
        "tle_line2": "2 29876  98.3345  29.1550 0061967  42.4088  14.1611 14.20289186977944"
      },
      "geometry": {
        "type": "Point",
        "coordinates": [
          27.788339650073894,
          16.078618242809927
        ]
      }
    },
    {
      "type": "Feature",
      "properties": {
        "norad_id": 29877,
        "name": "FENGYUN 1C DEB",
        "group": "fengyun-1c-debris",
        "lat": 63.471034120362205,
        "lon": -177.7657827003275,
        "alt_km": 822.047230338786,
        "timestamp": "2025-12-05T04:52:15.564777+00:00",
        "meta_object_name": "FENGYUN 1C DEB",
        "meta_object_id": "1999-025FX",
        "meta_epoch": "2025-12-04T12:11:15.124416",
        "meta_mean_motion": 14.24763917,
        "meta_eccentricity": 0.0045602,
        "meta_inclination": 98.5374,
        "meta_ra_of_asc_node": 344.0465,
        "meta_arg_of_pericenter": 242.7963,
        "meta_mean_anomaly": 269.3216,
        "meta_ephemeris_type": 0,
        "meta_classification_type": "U",
        "meta_norad_cat_id": 29877,
        "meta_element_set_no": 999,
        "meta_rev_at_epoch": 97856,
        "meta_bstar": 0.00084528,
        "meta_mean_motion_dot": 1.948e-05,
        "meta_mean_motion_ddot": 0,
        "tle_line1": "1 29877U 99025FX  25338.50781394  .00001948  00000+0  84528-3 0  9997",
        "tle_line2": "2 29877  98.5374 344.0465 0045602 242.7963 269.3216 14.24763917978565"
      },
      "geometry": {
        "type": "Point",
        "coordinates": [
          -177.7657827003275,
          63.471034120362205
        ]
      }
    },
    {
      "type": "Feature",
      "properties": {
        "norad_id": 29878,
        "name": "FENGYUN 1C DEB",
        "group": "fengyun-1c-debris",
        "lat": 29.086111022191513,
        "lon": 148.5353621901274,
        "alt_km": 564.8382037296924,
        "timestamp": "2025-12-05T04:52:15.564786+00:00",
        "meta_object_name": "FENGYUN 1C DEB",
        "meta_object_id": "1999-025FY",
        "meta_epoch": "2025-12-04T11:12:46.276128",
        "meta_mean_motion": 15.06976301,
        "meta_eccentricity": 0.0031809,
        "meta_inclination": 96.9502,
        "meta_ra_of_asc_node": 151.7616,
        "meta_arg_of_pericenter": 205.3349,
        "meta_mean_anomaly": 154.6322,
        "meta_ephemeris_type": 0,
        "meta_classification_type": "U",
        "meta_norad_cat_id": 29878,
        "meta_element_set_no": 999,
        "meta_rev_at_epoch": 98523,
        "meta_bstar": 0.016507,
        "meta_mean_motion_dot": 0.00258422,
        "meta_mean_motion_ddot": 0,
        "tle_line1": "1 29878U 99025FY  25338.46720227  .00258422  00000+0  16507-1 0  9992",
        "tle_line2": "2 29878  96.9502 151.7616 0031809 205.3349 154.6322 15.06976301985239"
      },
      "geometry": {
        "type": "Point",
        "coordinates": [
          148.5353621901274,
          29.086111022191513
        ]
      }
    },
    {
      "type": "Feature",
      "properties": {
        "norad_id": 29880,
        "name": "FENGYUN 1C DEB",
        "group": "fengyun-1c-debris",
        "lat": 51.03179907304834,
        "lon": 88.84999567996633,
        "alt_km": 742.487830902488,
        "timestamp": "2025-12-05T04:52:15.564795+00:00",
        "meta_object_name": "FENGYUN 1C DEB",
        "meta_object_id": "1999-025GA",
        "meta_epoch": "2025-12-04T08:12:13.216032",
        "meta_mean_motion": 13.9387159,
        "meta_eccentricity": 0.0231141,
        "meta_inclination": 98.1941,
        "meta_ra_of_asc_node": 257.8243,
        "meta_arg_of_pericenter": 125.0165,
        "meta_mean_anomaly": 4.1634,
        "meta_ephemeris_type": 0,
        "meta_classification_type": "U",
        "meta_norad_cat_id": 29880,
        "meta_element_set_no": 999,
        "meta_rev_at_epoch": 95445,
        "meta_bstar": 0.0013455,
        "meta_mean_motion_dot": 2.18e-05,
        "meta_mean_motion_ddot": 0,
        "tle_line1": "1 29880U 99025GA  25338.34181963  .00002180  00000+0  13455-2 0  9998",
        "tle_line2": "2 29880  98.1941 257.8243 0231141 125.0165   4.1634 13.93871590954455"
      },
      "geometry": {
        "type": "Point",
        "coordinates": [
          88.84999567996633,
          51.03179907304834
        ]
      }
    },
    {
      "type": "Feature",
      "properties": {
        "norad_id": 29881,
        "name": "FENGYUN 1C DEB",
        "group": "fengyun-1c-debris",
        "lat": 67.73222194491014,
        "lon": -69.81790093697003,
        "alt_km": 828.9547636305197,
        "timestamp": "2025-12-05T04:52:15.564804+00:00",
        "meta_object_name": "FENGYUN 1C DEB",
        "meta_object_id": "1999-025GB",
        "meta_epoch": "2025-12-04T09:49:29.820288",
        "meta_mean_motion": 13.59564995,
        "meta_eccentricity": 0.0291789,
        "meta_inclination": 98.7213,
        "meta_ra_of_asc_node": 311.4899,
        "meta_arg_of_pericenter": 93.4229,
        "meta_mean_anomaly": 55.1795,
        "meta_ephemeris_type": 0,
        "meta_classification_type": "U",
        "meta_norad_cat_id": 29881,
        "meta_element_set_no": 999,
        "meta_rev_at_epoch": 93121,
        "meta_bstar": 0.0034463,
        "meta_mean_motion_dot": 3.345e-05,
        "meta_mean_motion_ddot": 0,
        "tle_line1": "1 29881U 99025GB  25338.40937292  .00003345  00000+0  34463-2 0  9996",
        "tle_line2": "2 29881  98.7213 311.4899 0291789  93.4229  55.1795 13.59564995931214"
      },
      "geometry": {
        "type": "Point",
        "coordinates": [
          -69.81790093697003,
          67.73222194491014
        ]
      }
    },
    {
      "type": "Feature",
      "properties": {
        "norad_id": 29884,
        "name": "FENGYUN 1C DEB",
        "group": "fengyun-1c-debris",
        "lat": 5.608652007377958,
        "lon": 10.772089608882704,
        "alt_km": 787.9601889857277,
        "timestamp": "2025-12-05T04:52:15.564813+00:00",
        "meta_object_name": "FENGYUN 1C DEB",
        "meta_object_id": "1999-025GE",
        "meta_epoch": "2025-12-04T14:26:01.722048",
        "meta_mean_motion": 14.4024625,
        "meta_eccentricity": 0.0044455,
        "meta_inclination": 99.6034,
        "meta_ra_of_asc_node": 11.0507,
        "meta_arg_of_pericenter": 160.1597,
        "meta_mean_anomaly": 328.6524,
        "meta_ephemeris_type": 0,
        "meta_classification_type": "U",
        "meta_norad_cat_id": 29884,
        "meta_element_set_no": 999,
        "meta_rev_at_epoch": 98432,
        "meta_bstar": 0.001385,
        "meta_mean_motion_dot": 4.385e-05,
        "meta_mean_motion_ddot": 0,
        "tle_line1": "1 29884U 99025GE  25338.60140882  .00004385  00000+0  13850-2 0  9994",
        "tle_line2": "2 29884  99.6034  11.0507 0044455 160.1597 328.6524 14.40246250984323"
      },
      "geometry": {
        "type": "Point",
        "coordinates": [
          10.772089608882704,
          5.608652007377958
        ]
      }
    },
    {
      "type": "Feature",
      "properties": {
        "norad_id": 29885,
        "name": "FENGYUN 1C DEB",
        "group": "fengyun-1c-debris",
        "lat": -49.30888826004551,
        "lon": 84.88877666153634,
        "alt_km": 792.2057817584264,
        "timestamp": "2025-12-05T04:52:15.564822+00:00",
        "meta_object_name": "FENGYUN 1C DEB",
        "meta_object_id": "1999-025GF",
        "meta_epoch": "2025-12-04T09:42:23.508864",
        "meta_mean_motion": 14.13574845,
        "meta_eccentricity": 0.0117869,
        "meta_inclination": 98.3541,
        "meta_ra_of_asc_node": 273.9821,
        "meta_arg_of_pericenter": 188.2903,
        "meta_mean_anomaly": 299.465,
        "meta_ephemeris_type": 0,
        "meta_classification_type": "U",
        "meta_norad_cat_id": 29885,
        "meta_element_set_no": 999,
        "meta_rev_at_epoch": 97339,
        "meta_bstar": 0.0002524,
        "meta_mean_motion_dot": 4.68e-06,
        "meta_mean_motion_ddot": 0,
        "tle_line1": "1 29885U 99025GF  25338.40443876  .00000468  00000+0  25240-3 0  9997",
        "tle_line2": "2 29885  98.3541 273.9821 0117869 188.2903 299.4650 14.13574845973397"
      },
      "geometry": {
        "type": "Point",
        "coordinates": [
          84.88877666153634,
          -49.30888826004551
        ]
      }
    }
  ]
}